[{"OBJECT_NAME":"STARLINK-2643","OBJECT_ID":"2021-038Q","EPOCH":"2026-03-09T22:20:48.981408","MEAN_MOTION":15.30192738,"ECCENTRICITY":0.00010895,"INCLINATION":53.1603,"RA_OF_ASC_NODE":344.2448,"ARG_OF_PERICENTER":111.1052,"MEAN_ANOMALY":249.0066,"EPHEMERIS_TYPE":0,"CLASSIFICATION_TYPE":"U","NORAD_CAT_ID":48367,"ELEMENT_SET_NO":999,"REV_AT_EPOCH":26729,"BSTAR":-0.00013944232,"MEAN_MOTION_DOT":-4.485e-5,"MEAN_MOTION_DDOT":0},{"OBJECT_NAME":"VIZARD-METEO (RS38S)","OBJECT_ID":"2023-091Z","EPOCH":"2026-03-09T23:01:09.168960","MEAN_MOTION":15.32764799,"ECCENTRICITY":0.00087615,"INCLINATION":97.5192,"RA_OF_ASC_NODE":136.6522,"ARG_OF_PERICENTER":71.7666,"MEAN_ANOMALY":288.4529,"EPHEMERIS_TYPE":0,"CLASSIFICATION_TYPE":"U","NORAD_CAT_ID":57189,"ELEMENT_SET_NO":999,"REV_AT_EPOCH":14947,"BSTAR":0.00066106249,"MEAN_MOTION_DOT":0.00020895,"MEAN_MOTION_DDOT":0}]
